{
  "links" : {
    "next" : "https://api.nasa.gov/neo/rest/v1/feed?start_date=2013-04-16&end_date=2013-04-16&detailed=true&api_key=t0TVs3DtDT2H8Oy2Zy8m2eVrNsAVKAexjcZXUckd",
    "prev" : "https://api.nasa.gov/neo/rest/v1/feed?start_date=2013-04-14&end_date=2013-04-14&detailed=true&api_key=t0TVs3DtDT2H8Oy2Zy8m2eVrNsAVKAexjcZXUckd",
    "self" : "https://api.nasa.gov/neo/rest/v1/feed?start_date=2013-04-15&end_date=2013-04-15&detailed=true&api_key=t0TVs3DtDT2H8Oy2Zy8m2eVrNsAVKAexjcZXUckd"
  },
  "element_count" : 10,
  "near_earth_objects" : {
    "2013-04-15" : [ {
      "links" : {
        "self" : "https://api.nasa.gov/neo/rest/v1/neo/2490354?api_key=t0TVs3DtDT2H8Oy2Zy8m2eVrNsAVKAexjcZXUckd"
      },
      "neo_reference_id" : "2490354",
      "name" : "490354 (2009 FF19)",
      "nasa_jpl_url" : "http://ssd.jpl.nasa.gov/sbdb.cgi?sstr=2490354",
      "absolute_magnitude_h" : 21.3,
      "estimated_diameter" : {
        "kilometers" : {
          "estimated_diameter_min" : 0.1460679643,
          "estimated_diameter_max" : 0.3266178974
        },
        "meters" : {
          "estimated_diameter_min" : 146.0679642714,
          "estimated_diameter_max" : 326.6178974458
        },
        "miles" : {
          "estimated_diameter_min" : 0.090762397,
          "estimated_diameter_max" : 0.2029508896
        },
        "feet" : {
          "estimated_diameter_min" : 479.2256199,
          "estimated_diameter_max" : 1071.581062656
        }
      },
      "is_potentially_hazardous_asteroid" : true,
      "close_approach_data" : [ {
        "close_approach_date" : "2013-04-15",
        "epoch_date_close_approach" : 1366009200000,
        "relative_velocity" : {
          "kilometers_per_second" : "8.8595466876",
          "kilometers_per_hour" : "31894.368075189",
          "miles_per_hour" : "19817.9199853862"
        },
        "miss_distance" : {
          "astronomical" : "0.4705171556",
          "lunar" : "183.0311737061",
          "kilometers" : "70388368",
          "miles" : "43737304"
        },
        "orbiting_body" : "Earth"
      } ],
      "orbital_data" : {
        "orbit_id" : "32",
        "orbit_determination_date" : "2017-05-15 19:06:05",
        "orbit_uncertainty" : "1",
        "minimum_orbit_intersection" : ".00409967",
        "jupiter_tisserand_invariant" : "5.170",
        "epoch_osculation" : "2458000.5",
        "eccentricity" : ".4093313683630468",
        "semi_major_axis" : "1.21307869288182",
        "inclination" : ".5536382196600321",
        "ascending_node_longitude" : "84.35110595939366",
        "orbital_period" : "488.0135592020421",
        "perihelion_distance" : ".7165275315924485",
        "perihelion_argument" : "245.364444488154",
        "aphelion_distance" : "1.709629854171192",
        "perihelion_time" : "2457988.238325641655",
        "mean_anomaly" : "9.045246153041473",
        "mean_motion" : ".7376844212866567",
        "equinox" : "J2000"
      }
    } ]
  }
}